{
  "type": "FeatureCollection",
  "features": [
    {
      "type": "Feature",
      "properties": {
        "norad_id": 66457,
        "name": "STARLINK-35466",
        "group": "last-30-days",
        "lat": 28.54025010662593,
        "lon": 118.97476127040234,
        "alt_km": 439.82637260586944,
        "timestamp": "2025-12-10T16:57:10.415007+00:00",
        "meta_object_name": "STARLINK-35466",
        "meta_object_id": "2025-262B",
        "meta_epoch": "2025-12-10T12:00:02.998944",
        "meta_mean_motion": 15.40649595,
        "meta_eccentricity": 9.88e-05,
        "meta_inclination": 42.9999,
        "meta_ra_of_asc_node": 84.457,
        "meta_arg_of_pericenter": 294.8809,
        "meta_mean_anomaly": 43.8856,
        "meta_ephemeris_type": 0,
        "meta_classification_type": "U",
        "meta_norad_cat_id": 66457,
        "meta_element_set_no": 999,
        "meta_rev_at_epoch": 527,
        "meta_bstar": 0.00082026,
        "meta_mean_motion_dot": 0.00034056,
        "meta_mean_motion_ddot": 0,
        "tle_line1": "1 66457U 25262B   25344.50003471  .00034056  00000+0  82026-3 0  9991",
        "tle_line2": "2 66457  42.9999  84.4570 0000988 294.8809  43.8856 15.40649595  5271"
      },
      "geometry": {
        "type": "Point",
        "coordinates": [
          118.97476127040234,
          28.54025010662593
        ]
      }
    },
    {
      "type": "Feature",
      "properties": {
        "norad_id": 66458,
        "name": "STARLINK-35684",
        "group": "last-30-days",
        "lat": 21.147028666568513,
        "lon": 107.82484519617165,
        "alt_km": 440.8789876624187,
        "timestamp": "2025-12-10T16:57:10.415016+00:00",
        "meta_object_name": "STARLINK-35684",
        "meta_object_id": "2025-262C",
        "meta_epoch": "2025-12-10T12:00:02.998944",
        "meta_mean_motion": 15.40661913,
        "meta_eccentricity": 0.0001307,
        "meta_inclination": 42.9998,
        "meta_ra_of_asc_node": 84.4884,
        "meta_arg_of_pericenter": 292.8907,
        "meta_mean_anomaly": 33.33,
        "meta_ephemeris_type": 0,
        "meta_classification_type": "U",
        "meta_norad_cat_id": 66458,
        "meta_element_set_no": 999,
        "meta_rev_at_epoch": 527,
        "meta_bstar": 0.0010944,
        "meta_mean_motion_dot": 0.00045629,
        "meta_mean_motion_ddot": 0,
        "tle_line1": "1 66458U 25262C   25344.50003471  .00045629  00000+0  10944-2 0  9999",
        "tle_line2": "2 66458  42.9998  84.4884 0001307 292.8907  33.3300 15.40661913  5278"
      },
      "geometry": {
        "type": "Point",
        "coordinates": [
          107.82484519617165,
          21.147028666568513
        ]
      }
    },
    {
      "type": "Feature",
      "properties": {
        "norad_id": 66459,
        "name": "STARLINK-35449",
        "group": "last-30-days",
        "lat": 34.847120417532516,
        "lon": 131.58183559013602,
        "alt_km": 439.2992649326861,
        "timestamp": "2025-12-10T16:57:10.415027+00:00",
        "meta_object_name": "STARLINK-35449",
        "meta_object_id": "2025-262D",
        "meta_epoch": "2025-12-10T12:00:02.998944",
        "meta_mean_motion": 15.40654738,
        "meta_eccentricity": 0.0001212,
        "meta_inclination": 42.9999,
        "meta_ra_of_asc_node": 84.4264,
        "meta_arg_of_pericenter": 265.6199,
        "meta_mean_anomaly": 85.5832,
        "meta_ephemeris_type": 0,
        "meta_classification_type": "U",
        "meta_norad_cat_id": 66459,
        "meta_element_set_no": 999,
        "meta_rev_at_epoch": 527,
        "meta_bstar": 0.00083681,
        "meta_mean_motion_dot": 0.00034759,
        "meta_mean_motion_ddot": 0,
        "tle_line1": "1 66459U 25262D   25344.50003471  .00034759  00000+0  83681-3 0  9991",
        "tle_line2": "2 66459  42.9999  84.4264 0001212 265.6199  85.5832 15.40654738  5274"
      },
      "geometry": {
        "type": "Point",
        "coordinates": [
          131.58183559013602,
          34.847120417532516
        ]
      }
    },
    {
      "type": "Feature",
      "properties": {
        "norad_id": 66460,
        "name": "STARLINK-35424",
        "group": "last-30-days",
        "lat": 39.656621307455275,
        "lon": 146.02525926603477,
        "alt_km": 438.62789545748456,
        "timestamp": "2025-12-10T16:57:10.415039+00:00",
        "meta_object_name": "STARLINK-35424",
        "meta_object_id": "2025-262E",
        "meta_epoch": "2025-12-10T12:00:02.998944",
        "meta_mean_motion": 15.40739677,
        "meta_eccentricity": 0.0001346,
        "meta_inclination": 42.9998,
        "meta_ra_of_asc_node": 84.3961,
        "meta_arg_of_pericenter": 263.0889,
        "meta_mean_anomaly": 100.5249,
        "meta_ephemeris_type": 0,
        "meta_classification_type": "U",
        "meta_norad_cat_id": 66460,
        "meta_element_set_no": 999,
        "meta_rev_at_epoch": 527,
        "meta_bstar": -0.0024909,
        "meta_mean_motion_dot": -0.00103095,
        "meta_mean_motion_ddot": 0,
        "tle_line1": "1 66460U 25262E   25344.50003471 -.00103095  00000+0 -24909-2 0  9992",
        "tle_line2": "2 66460  42.9998  84.3961 0001346 263.0889 100.5249 15.40739677  5270"
      },
      "geometry": {
        "type": "Point",
        "coordinates": [
          146.02525926603477,
          39.656621307455275
        ]
      }
    },
    {
      "type": "Feature",
      "properties": {
        "norad_id": 66461,
        "name": "STARLINK-35132",
        "group": "last-30-days",
        "lat": 42.44283279463134,
        "lon": 162.1001672666252,
        "alt_km": 438.3332204633616,
        "timestamp": "2025-12-10T16:57:10.415049+00:00",
        "meta_object_name": "STARLINK-35132",
        "meta_object_id": "2025-262F",
        "meta_epoch": "2025-12-10T12:00:02.998944",
        "meta_mean_motion": 15.4077719,
        "meta_eccentricity": 0.0001646,
        "meta_inclination": 43.0001,
        "meta_ra_of_asc_node": 84.3663,
        "meta_arg_of_pericenter": 279.0855,
        "meta_mean_anomaly": 96.9302,
        "meta_ephemeris_type": 0,
        "meta_classification_type": "U",
        "meta_norad_cat_id": 66461,
        "meta_element_set_no": 999,
        "meta_rev_at_epoch": 527,
        "meta_bstar": -0.003835,
        "meta_mean_motion_dot": -0.00157646,
        "meta_mean_motion_ddot": 0,
        "tle_line1": "1 66461U 25262F   25344.50003471 -.00157646  00000+0 -38350-2 0  9999",
        "tle_line2": "2 66461  43.0001  84.3663 0001646 279.0855  96.9302 15.40777190  5270"
      },
      "geometry": {
        "type": "Point",
        "coordinates": [
          162.1001672666252,
          42.44283279463134
        ]
      }
    },
    {
      "type": "Feature",
      "properties": {
        "norad_id": 66462,
        "name": "STARLINK-35499",
        "group": "last-30-days",
        "lat": 42.83008004348849,
        "lon": 179.00995459284627,
        "alt_km": 438.21387529709864,
        "timestamp": "2025-12-10T16:57:10.415059+00:00",
        "meta_object_name": "STARLINK-35499",
        "meta_object_id": "2025-262G",
        "meta_epoch": "2025-12-10T12:00:02.998944",
        "meta_mean_motion": 15.40645292,
        "meta_eccentricity": 0.0001255,
        "meta_inclination": 43.0003,
        "meta_ra_of_asc_node": 84.3342,
        "meta_arg_of_pericenter": 270.6315,
        "meta_mean_anomaly": 117.8899,
        "meta_ephemeris_type": 0,
        "meta_classification_type": "U",
        "meta_norad_cat_id": 66462,
        "meta_element_set_no": 999,
        "meta_rev_at_epoch": 527,
        "meta_bstar": 0.00092496,
        "meta_mean_motion_dot": 0.00038459,
        "meta_mean_motion_ddot": 0,
        "tle_line1": "1 66462U 25262G   25344.50003471  .00038459  00000+0  92496-3 0  9990",
        "tle_line2": "2 66462  43.0003  84.3342 0001255 270.6315 117.8899 15.40645292  5272"
      },
      "geometry": {
        "type": "Point",
        "coordinates": [
          179.00995459284627,
          42.83008004348849
        ]
      }
    },
    {
      "type": "Feature",
      "properties": {
        "norad_id": 66463,
        "name": "STARLINK-35463",
        "group": "last-30-days",
        "lat": 36.510844804702195,
        "lon": -149.5115401327988,
        "alt_km": 438.9695630269098,
        "timestamp": "2025-12-10T16:57:10.415069+00:00",
        "meta_object_name": "STARLINK-35463",
        "meta_object_id": "2025-262H",
        "meta_epoch": "2025-12-10T12:00:02.998944",
        "meta_mean_motion": 15.40949693,
        "meta_eccentricity": 0.0001503,
        "meta_inclination": 43.0003,
        "meta_ra_of_asc_node": 84.2748,
        "meta_arg_of_pericenter": 271.998,
        "meta_mean_anomaly": 141.2724,
        "meta_ephemeris_type": 0,
        "meta_classification_type": "U",
        "meta_norad_cat_id": 66463,
        "meta_element_set_no": 999,
        "meta_rev_at_epoch": 527,
        "meta_bstar": -0.010973,
        "meta_mean_motion_dot": -0.00436995,
        "meta_mean_motion_ddot": 0,
        "tle_line1": "1 66463U 25262H   25344.50003471 -.00436995  00000+0 -10973-1 0  9998",
        "tle_line2": "2 66463  43.0003  84.2748 0001503 271.9980 141.2724 15.40949693  5270"
      },
      "geometry": {
        "type": "Point",
        "coordinates": [
          -149.5115401327988,
          36.510844804702195
        ]
      }
    }
  ]
}